[{"OBJECT_NAME":"NEE-02 KRYSAOR","OBJECT_ID":"2013-066AB","EPOCH":"2026-03-09T09:04:24.249216","MEAN_MOTION":14.86160783,"ECCENTRICITY":0.006776,"INCLINATION":97.8816,"RA_OF_ASC_NODE":8.3817,"ARG_OF_PERICENTER":38.0821,"MEAN_ANOMALY":322.5155,"EPHEMERIS_TYPE":0,"CLASSIFICATION_TYPE":"U","NORAD_CAT_ID":39441,"ELEMENT_SET_NO":999,"REV_AT_EPOCH":66137,"BSTAR":0.00046918892,"MEAN_MOTION_DOT":4.234e-5,"MEAN_MOTION_DDOT":0},{"OBJECT_NAME":"STARLINK-33812","OBJECT_ID":"2025-094R","EPOCH":"2026-03-09T21:25:27.600384","MEAN_MOTION":14.98334071,"ECCENTRICITY":0.00028544,"INCLINATION":70.002,"RA_OF_ASC_NODE":233.9336,"ARG_OF_PERICENTER":271.538,"MEAN_ANOMALY":88.5453,"EPHEMERIS_TYPE":0,"CLASSIFICATION_TYPE":"U","NORAD_CAT_ID":63879,"ELEMENT_SET_NO":999,"REV_AT_EPOCH":4723,"BSTAR":0.00019921278,"MEAN_MOTION_DOT":2.285e-5,"MEAN_MOTION_DDOT":0}]
